STARLINK-36369          
1 67723U 26026C   26058.66671296 -.00036254  00000+0 -18899-3 0  9994
2 67723  97.2856 112.8154 0001502 123.0695 142.5364 15.80853156  3707
STARLINK-36752          
1 67724U 26026D   26058.66671296 -.00025223  00000+0 -13109-3 0  9998
2 67724  97.2858 112.8194 0001244  97.2388 176.0065 15.80854898  3702
STARLINK-36754          
1 67725U 26026E   26058.66671296 -.00014485  00000+0 -74908-4 0  9992
2 67725  97.2859 112.8212 0001334 103.0693 176.1940 15.80844209  3708
STARLINK-36755          
1 67726U 26026F   26058.66671296 -.00010566  00000+0 -54407-4 0  9991
2 67726  97.2860 112.8233 0001466 105.0140 181.9006 15.80846781  3703
STARLINK-36741          
1 67727U 26026G   26058.66671296 -.00046531  00000+0 -24286-3 0  9994
2 67727  97.2859 112.8249 0001281  72.0341 219.8172 15.80870974  3706
STARLINK-36757          
1 67728U 26026H   26058.66671296 -.00027094  00000+0 -14089-3 0  9998
2 67728  97.2862 112.8273 0001267  89.4997 209.2681 15.80856537  3708
STARLINK-36751          
1 67729U 26026J   26058.66671296 -.00065477  00000+0 -34266-3 0  9995
2 67729  97.2859 112.8330 0001898 118.7497 194.1068 15.80877574  3705
STARLINK-36747          
1 67730U 26026K   26058.66671296 -.00029603  00000+0 -15403-3 0  9990
2 67730  97.2861 112.8304 0001330 121.8551 182.4431 15.80857431  3702
STARLINK-36315          
1 67731U 26026L   26058.66671296 -.00057211  00000+0 -29908-3 0  9992
2 67731  97.2860 112.8357 0001178  90.9865 227.3444 15.80875533  3700
STARLINK-36260          
1 67732U 26026M   26058.66671296 -.00021567  00000+0 -11195-3 0  9997
2 67732  97.2861 112.8382 0001455 122.7450 202.3311 15.80850968  3703
STARLINK-36746          
1 67733U 26026N   26058.66671296 -.01952525  00000+0 -17760-1 0  9998
2 67733  97.2808 112.8219 0001524  88.3364 198.7704 15.70853553  3708
STARLINK-36749          
1 67734U 26026P   26058.66671296 -.00058524  00000+0 -30606-3 0  9990
2 67734  97.2863 112.8419 0001603 105.3497 231.4269 15.80870920  3706
