CCSDS_OMM_VERS = 2.0
CREATION_DATE  = 
ORIGINATOR     = 

OBJECT_NAME    = STARLINK-36369
OBJECT_ID      = 2026-026C
CENTER_NAME    = EARTH
REF_FRAME      = TEME
TIME_SYSTEM    = UTC
MEAN_ELEMENT_THEORY = SGP/SGP4

EPOCH          = 2026-02-27T16:00:03.999744
MEAN_MOTION    = 15.80853156
ECCENTRICITY   = .0001502
INCLINATION    = 97.2856
RA_OF_ASC_NODE = 112.8154
ARG_OF_PERICENTER = 123.0695
MEAN_ANOMALY   = 142.5364

EPHEMERIS_TYPE = 0
CLASSIFICATION_TYPE = U
NORAD_CAT_ID   = 67723
ELEMENT_SET_NO = 999
REV_AT_EPOCH   = 370
BSTAR          = -.18899E-3
MEAN_MOTION_DOT = -.36254E-3
MEAN_MOTION_DDOT = 0

CCSDS_OMM_VERS = 2.0
CREATION_DATE  = 
ORIGINATOR     = 

OBJECT_NAME    = STARLINK-36752
OBJECT_ID      = 2026-026D
CENTER_NAME    = EARTH
REF_FRAME      = TEME
TIME_SYSTEM    = UTC
MEAN_ELEMENT_THEORY = SGP/SGP4

EPOCH          = 2026-02-27T16:00:03.999744
MEAN_MOTION    = 15.80854898
ECCENTRICITY   = .0001244
INCLINATION    = 97.2858
RA_OF_ASC_NODE = 112.8194
ARG_OF_PERICENTER = 97.2388
MEAN_ANOMALY   = 176.0065

EPHEMERIS_TYPE = 0
CLASSIFICATION_TYPE = U
NORAD_CAT_ID   = 67724
ELEMENT_SET_NO = 999
REV_AT_EPOCH   = 370
BSTAR          = -.13109E-3
MEAN_MOTION_DOT = -.25223E-3
MEAN_MOTION_DDOT = 0

CCSDS_OMM_VERS = 2.0
CREATION_DATE  = 
ORIGINATOR     = 

OBJECT_NAME    = STARLINK-36754
OBJECT_ID      = 2026-026E
CENTER_NAME    = EARTH
REF_FRAME      = TEME
TIME_SYSTEM    = UTC
MEAN_ELEMENT_THEORY = SGP/SGP4

EPOCH          = 2026-02-27T16:00:03.999744
MEAN_MOTION    = 15.80844209
ECCENTRICITY   = .0001334
INCLINATION    = 97.2859
RA_OF_ASC_NODE = 112.8212
ARG_OF_PERICENTER = 103.0693
MEAN_ANOMALY   = 176.1940

EPHEMERIS_TYPE = 0
CLASSIFICATION_TYPE = U
NORAD_CAT_ID   = 67725
ELEMENT_SET_NO = 999
REV_AT_EPOCH   = 370
BSTAR          = -.74908E-4
MEAN_MOTION_DOT = -.14485E-3
MEAN_MOTION_DDOT = 0

CCSDS_OMM_VERS = 2.0
CREATION_DATE  = 
ORIGINATOR     = 

OBJECT_NAME    = STARLINK-36755
OBJECT_ID      = 2026-026F
CENTER_NAME    = EARTH
REF_FRAME      = TEME
TIME_SYSTEM    = UTC
MEAN_ELEMENT_THEORY = SGP/SGP4

EPOCH          = 2026-02-27T16:00:03.999744
MEAN_MOTION    = 15.80846781
ECCENTRICITY   = .0001466
INCLINATION    = 97.2860
RA_OF_ASC_NODE = 112.8233
ARG_OF_PERICENTER = 105.0140
MEAN_ANOMALY   = 181.9006

EPHEMERIS_TYPE = 0
CLASSIFICATION_TYPE = U
NORAD_CAT_ID   = 67726
ELEMENT_SET_NO = 999
REV_AT_EPOCH   = 370
BSTAR          = -.54407E-4
MEAN_MOTION_DOT = -.10566E-3
MEAN_MOTION_DDOT = 0

CCSDS_OMM_VERS = 2.0
CREATION_DATE  = 
ORIGINATOR     = 

OBJECT_NAME    = STARLINK-36741
OBJECT_ID      = 2026-026G
CENTER_NAME    = EARTH
REF_FRAME      = TEME
TIME_SYSTEM    = UTC
MEAN_ELEMENT_THEORY = SGP/SGP4

EPOCH          = 2026-02-27T16:00:03.999744
MEAN_MOTION    = 15.80870974
ECCENTRICITY   = .0001281
INCLINATION    = 97.2859
RA_OF_ASC_NODE = 112.8249
ARG_OF_PERICENTER = 72.0341
MEAN_ANOMALY   = 219.8172

EPHEMERIS_TYPE = 0
CLASSIFICATION_TYPE = U
NORAD_CAT_ID   = 67727
ELEMENT_SET_NO = 999
REV_AT_EPOCH   = 370
BSTAR          = -.24286E-3
MEAN_MOTION_DOT = -.46531E-3
MEAN_MOTION_DDOT = 0

CCSDS_OMM_VERS = 2.0
CREATION_DATE  = 
ORIGINATOR     = 

OBJECT_NAME    = STARLINK-36757
OBJECT_ID      = 2026-026H
CENTER_NAME    = EARTH
REF_FRAME      = TEME
TIME_SYSTEM    = UTC
MEAN_ELEMENT_THEORY = SGP/SGP4

EPOCH          = 2026-02-27T16:00:03.999744
MEAN_MOTION    = 15.80856537
ECCENTRICITY   = .0001267
INCLINATION    = 97.2862
RA_OF_ASC_NODE = 112.8273
ARG_OF_PERICENTER = 89.4997
MEAN_ANOMALY   = 209.2681

EPHEMERIS_TYPE = 0
CLASSIFICATION_TYPE = U
NORAD_CAT_ID   = 67728
ELEMENT_SET_NO = 999
REV_AT_EPOCH   = 370
BSTAR          = -.14089E-3
MEAN_MOTION_DOT = -.27094E-3
MEAN_MOTION_DDOT = 0

CCSDS_OMM_VERS = 2.0
CREATION_DATE  = 
ORIGINATOR     = 

OBJECT_NAME    = STARLINK-36751
OBJECT_ID      = 2026-026J
CENTER_NAME    = EARTH
REF_FRAME      = TEME
TIME_SYSTEM    = UTC
MEAN_ELEMENT_THEORY = SGP/SGP4

EPOCH          = 2026-02-27T16:00:03.999744
MEAN_MOTION    = 15.80877574
ECCENTRICITY   = .0001898
INCLINATION    = 97.2859
RA_OF_ASC_NODE = 112.8330
ARG_OF_PERICENTER = 118.7497
MEAN_ANOMALY   = 194.1068

EPHEMERIS_TYPE = 0
CLASSIFICATION_TYPE = U
NORAD_CAT_ID   = 67729
ELEMENT_SET_NO = 999
REV_AT_EPOCH   = 370
BSTAR          = -.34266E-3
MEAN_MOTION_DOT = -.65477E-3
MEAN_MOTION_DDOT = 0

CCSDS_OMM_VERS = 2.0
CREATION_DATE  = 
ORIGINATOR     = 

OBJECT_NAME    = STARLINK-36747
OBJECT_ID      = 2026-026K
CENTER_NAME    = EARTH
REF_FRAME      = TEME
TIME_SYSTEM    = UTC
MEAN_ELEMENT_THEORY = SGP/SGP4

EPOCH          = 2026-02-27T16:00:03.999744
MEAN_MOTION    = 15.80857431
ECCENTRICITY   = .000133
INCLINATION    = 97.2861
RA_OF_ASC_NODE = 112.8304
ARG_OF_PERICENTER = 121.8551
MEAN_ANOMALY   = 182.4431

EPHEMERIS_TYPE = 0
CLASSIFICATION_TYPE = U
NORAD_CAT_ID   = 67730
ELEMENT_SET_NO = 999
REV_AT_EPOCH   = 370
BSTAR          = -.15403E-3
MEAN_MOTION_DOT = -.29603E-3
MEAN_MOTION_DDOT = 0

CCSDS_OMM_VERS = 2.0
CREATION_DATE  = 
ORIGINATOR     = 

OBJECT_NAME    = STARLINK-36315
OBJECT_ID      = 2026-026L
CENTER_NAME    = EARTH
REF_FRAME      = TEME
TIME_SYSTEM    = UTC
MEAN_ELEMENT_THEORY = SGP/SGP4

EPOCH          = 2026-02-27T16:00:03.999744
MEAN_MOTION    = 15.80875533
ECCENTRICITY   = .0001178
INCLINATION    = 97.2860
RA_OF_ASC_NODE = 112.8357
ARG_OF_PERICENTER = 90.9865
MEAN_ANOMALY   = 227.3444

EPHEMERIS_TYPE = 0
CLASSIFICATION_TYPE = U
NORAD_CAT_ID   = 67731
ELEMENT_SET_NO = 999
REV_AT_EPOCH   = 370
BSTAR          = -.29908E-3
MEAN_MOTION_DOT = -.57211E-3
MEAN_MOTION_DDOT = 0

CCSDS_OMM_VERS = 2.0
CREATION_DATE  = 
ORIGINATOR     = 

OBJECT_NAME    = STARLINK-36260
OBJECT_ID      = 2026-026M
CENTER_NAME    = EARTH
REF_FRAME      = TEME
TIME_SYSTEM    = UTC
MEAN_ELEMENT_THEORY = SGP/SGP4

EPOCH          = 2026-02-27T16:00:03.999744
MEAN_MOTION    = 15.80850968
ECCENTRICITY   = .0001455
INCLINATION    = 97.2861
RA_OF_ASC_NODE = 112.8382
ARG_OF_PERICENTER = 122.7450
MEAN_ANOMALY   = 202.3311

EPHEMERIS_TYPE = 0
CLASSIFICATION_TYPE = U
NORAD_CAT_ID   = 67732
ELEMENT_SET_NO = 999
REV_AT_EPOCH   = 370
BSTAR          = -.11195E-3
MEAN_MOTION_DOT = -.21567E-3
MEAN_MOTION_DDOT = 0

CCSDS_OMM_VERS = 2.0
CREATION_DATE  = 
ORIGINATOR     = 

OBJECT_NAME    = STARLINK-36746
OBJECT_ID      = 2026-026N
CENTER_NAME    = EARTH
REF_FRAME      = TEME
TIME_SYSTEM    = UTC
MEAN_ELEMENT_THEORY = SGP/SGP4

EPOCH          = 2026-02-27T16:00:03.999744
MEAN_MOTION    = 15.70853553
ECCENTRICITY   = .0001524
INCLINATION    = 97.2808
RA_OF_ASC_NODE = 112.8219
ARG_OF_PERICENTER = 88.3364
MEAN_ANOMALY   = 198.7704

EPHEMERIS_TYPE = 0
CLASSIFICATION_TYPE = U
NORAD_CAT_ID   = 67733
ELEMENT_SET_NO = 999
REV_AT_EPOCH   = 370
BSTAR          = -.1776E-1
MEAN_MOTION_DOT = -.1952525E-1
MEAN_MOTION_DDOT = 0

CCSDS_OMM_VERS = 2.0
CREATION_DATE  = 
ORIGINATOR     = 

OBJECT_NAME    = STARLINK-36749
OBJECT_ID      = 2026-026P
CENTER_NAME    = EARTH
REF_FRAME      = TEME
TIME_SYSTEM    = UTC
MEAN_ELEMENT_THEORY = SGP/SGP4

EPOCH          = 2026-02-27T16:00:03.999744
MEAN_MOTION    = 15.80870920
ECCENTRICITY   = .0001603
INCLINATION    = 97.2863
RA_OF_ASC_NODE = 112.8419
ARG_OF_PERICENTER = 105.3497
MEAN_ANOMALY   = 231.4269

EPHEMERIS_TYPE = 0
CLASSIFICATION_TYPE = U
NORAD_CAT_ID   = 67734
ELEMENT_SET_NO = 999
REV_AT_EPOCH   = 370
BSTAR          = -.30606E-3
MEAN_MOTION_DOT = -.58524E-3
MEAN_MOTION_DDOT = 0

